OBJECT_NAME,OBJECT_ID,EPOCH,MEAN_MOTION,ECCENTRICITY,INCLINATION,RA_OF_ASC_NODE,ARG_OF_PERICENTER,MEAN_ANOMALY,EPHEMERIS_TYPE,CLASSIFICATION_TYPE,NORAD_CAT_ID,ELEMENT_SET_NO,REV_AT_EPOCH,BSTAR,MEAN_MOTION_DOT,MEAN_MOTION_DDOT
LEMUR-2-CELIJO-SB-PK,2025-276DW,2026-06-16T04:03:51.083136,14.99967284,.00089872,97.5256,237.9800,136.0312,224.1628,0,U,66781,999,2247,.37199008E-3,.4569E-4,0
LEMUR-2-FINNIAN,2025-276DX,2026-06-16T03:31:05.910816,15.00367182,.00088484,97.5287,238.1708,92.3800,267.8437,0,U,66782,999,1984,.46153154E-3,.5743E-4,0
LEMUR-2-STARLIGHT,2025-276DY,2026-06-16T04:03:00.232416,14.99033349,.00152005,97.5269,237.8423,130.8589,229.3954,0,U,66783,999,3004,.35239632E-3,.4227E-4,0
LEMUR-2-TARTIFLETTE,2025-276DZ,2026-06-16T04:00:50.350752,14.99063151,.00141221,97.5272,237.8471,137.1635,223.0691,0,U,66784,999,3004,.34457767E-3,.4133E-4,0
LEMUR-2-VUKASIN,2025-276EA,2026-06-16T03:52:58.682784,15.00359280,.00061864,97.5311,238.1355,126.1117,234.0681,0,U,66785,999,2999,.37926135E-3,.4706E-4,0
LEMUR-2-HOTSPUR-TOM,2025-276EB,2026-06-16T03:50:01.963680,14.98952968,.00155352,97.5266,237.8216,130.7335,229.5240,0,U,66786,999,2997,.44652533E-3,.5361E-4,0
LEMUR-2-MYRA,2025-276EC,2026-06-15T23:50:02.847264,15.00230808,.00164593,97.5220,237.9131,145.3223,214.9078,0,U,66787,999,3003,.52673422E-3,.6553E-4,0
LEMUR-2 FIKRETDENGIZ,2026-004A,2026-06-16T06:14:51.048384,14.88318540,.00100104,97.8010,165.8325,135.7985,224.4033,0,U,67363,999,2314,.35484798E-3,.3231E-4,0
TWILIGHT-1 OBJECT B,2026-004B,2026-06-15T22:45:14.727168,14.87698526,.0009846,97.8061,165.5409,127.7812,232.4298,0,U,67364,999,2310,.18139E-3,.1599E-4,0
LEMUR-2-MARIO-SOUSA,2026-004C,2026-06-15T23:24:13.485312,14.88506101,.00095777,97.7985,165.5481,137.0561,223.1405,0,U,67365,999,2311,.35330301E-3,.3231E-4,0
LEMUR-2-SONNENBLUME,2026-004E,2026-06-16T05:48:56.019456,14.88312229,.00090821,97.7981,165.7961,137.8080,222.3838,0,U,67367,999,2315,.22729758E-3,.2049E-4,0
LEMUR-2-WOBLER,2026-004F,2026-06-16T05:39:44.348544,14.88511848,.00095141,97.8035,165.9111,128.1908,232.0167,0,U,67368,999,2315,.2853927E-3,.26E-4,0
LEMUR-2-GRAM-E-SUE,2026-004H,2026-06-15T22:59:01.078368,14.88466870,.0008114,97.7967,165.5309,139.1922,220.9903,0,U,67370,999,2311,.22535E-3,.2038E-4,0
LEMUR-2-KATIE,2026-004AA,2026-06-16T06:46:04.355040,14.90043844,.00048567,97.8033,166.3065,95.1034,265.0738,0,U,67387,999,2317,.34142533E-3,.3241E-4,0
LEMUR-2-HCS-BAZUS,2026-004AB,2026-06-16T06:44:44.289024,14.90063314,.00044395,97.8018,166.2865,91.9316,268.2410,0,U,67388,999,2317,.50535619E-3,.4828E-4,0
