LEMUR-2-CELIJO-SB-PK    
1 66781U 25276DW  26167.16934124  .00004569  00000+0  37199-3 0  9997
2 66781  97.5256 237.9800 0008987 136.0312 224.1628 14.99967284 22470
LEMUR-2-FINNIAN         
1 66782U 25276DX  26167.14659619  .00005743  00000+0  46153-3 0  9994
2 66782  97.5287 238.1708 0008848  92.3800 267.8437 15.00367182 19840
LEMUR-2-STARLIGHT       
1 66783U 25276DY  26167.16875269  .00004227  00000+0  35240-3 0  9999
2 66783  97.5269 237.8423 0015200 130.8589 229.3954 14.99033349 30047
LEMUR-2-TARTIFLETTE     
1 66784U 25276DZ  26167.16724943  .00004133  00000+0  34458-3 0  9998
2 66784  97.5272 237.8471 0014122 137.1635 223.0691 14.99063151 30042
LEMUR-2-VUKASIN         
1 66785U 25276EA  26167.16179031  .00004706  00000+0  37926-3 0  9990
2 66785  97.5311 238.1355 0006186 126.1117 234.0681 15.00359280 29993
LEMUR-2-HOTSPUR-TOM     
1 66786U 25276EB  26167.15974495  .00005361  00000+0  44653-3 0  9990
2 66786  97.5266 237.8216 0015535 130.7335 229.5240 14.98952968 29972
LEMUR-2-MYRA            
1 66787U 25276EC  26166.99308851  .00006553  00000+0  52673-3 0  9994
2 66787  97.5220 237.9131 0016459 145.3223 214.9078 15.00230808 30036
LEMUR-2 FIKRETDENGIZ    
1 67363U 26004A   26167.26031306  .00003231  00000+0  35485-3 0  9996
2 67363  97.8010 165.8325 0010010 135.7985 224.4033 14.88318540 23142
TWILIGHT-1 OBJECT B     
1 67364U 26004B   26166.94808712  .00001599  00000+0  18139-3 0  9996
2 67364  97.8061 165.5409 0009846 127.7812 232.4298 14.87698526 23106
LEMUR-2-MARIO-SOUSA     
1 67365U 26004C   26166.97515608  .00003231  00000+0  35330-3 0  9996
2 67365  97.7985 165.5481 0009577 137.0561 223.1405 14.88506101 23113
LEMUR-2-SONNENBLUME     
1 67367U 26004E   26167.24231504  .00002049  00000+0  22730-3 0  9995
2 67367  97.7981 165.7961 0009082 137.8080 222.3838 14.88312229 23152
LEMUR-2-WOBLER          
1 67368U 26004F   26167.23592996  .00002600  00000+0  28539-3 0  9996
2 67368  97.8035 165.9111 0009514 128.1908 232.0167 14.88511848 23156
LEMUR-2-GRAM-E-SUE      
1 67370U 26004H   26166.95765137  .00002038  00000+0  22535-3 0  9991
2 67370  97.7967 165.5309 0008114 139.1922 220.9903 14.88466870 23114
LEMUR-2-KATIE           
1 67387U 26004AA  26167.28199485  .00003241  00000+0  34143-3 0  9998
2 67387  97.8033 166.3065 0004856  95.1034 265.0738 14.90043844 23176
LEMUR-2-HCS-BAZUS       
1 67388U 26004AB  26167.28106816  .00004828  00000+0  50536-3 0  9991
2 67388  97.8018 166.2865 0004439  91.9316 268.2410 14.90063314 23177
